ZHONGXING-6B            
1 31800U 07031A   24112.92183131 -.00000353  00000+0  00000+0 0  9991
2 31800   0.3698  91.8047 0003599 288.7424 277.2273  1.00271509 61541
DIRECTV 10              
1 31862U 07032A   24112.58285341 -.00000097  00000+0  00000+0 0  9993
2 31862   0.0058 171.5606 0000409 110.7454  34.8594  1.00272333 61513
BSAT-3A                 
1 32019U 07036B   24112.56278097 -.00000344  00000+0  00000+0 0  9995
2 32019   0.0453 136.4140 0000429 129.9286 256.2259  1.00272464 42643
OPTUS D2                
1 32252U 07044A   24112.86438097 -.00000102  00000+0  00000+0 0  9996
2 32252   0.0534  79.6713 0003541 311.6785 290.2855  1.00273255 60681
INTELSAT 11 (IS-11)     
1 32253U 07044B   24112.89032913 -.00000259  00000+0  00000+0 0  9990
2 32253   1.5184  88.3866 0003364 312.4450  87.1284  1.00272009 60614
WGS F1 (USA 195)        
1 32258U 07046A   24113.11484740  .00000049  00000+0  00000+0 0  9998
2 32258   0.0155 228.4478 0000285 197.6334 191.9393  1.00268478 60430
SKYNET 5B               
1 32294U 07056B   24113.11867638  .00000153  00000+0  00000+0 0  9996
2 32294   3.2436  82.6928 0004033 309.3671 246.4366  1.00274132 60315
ASTRA 4A (SIRIUS 4)     
1 32299U 07057A   24112.82828201  .00000040  00000+0  00000+0 0  9997
2 32299   0.0240  89.0405 0002997 300.2820 124.0413  1.00270600 43773
HORIZONS-2              
1 32388U 07063B   24113.02738969 -.00000245  00000+0  00000+0 0  9995
2 32388   0.5657  90.0024 0002040 301.5504 115.0811  1.00273869 59993
THURAYA-3               
1 32404U 08001A   24112.84690485 -.00000294  00000+0  00000+0 0  9990
2 32404   4.7795  31.9278 0002468   5.2346 216.6083  1.00273601 59603
THOR 5                  
1 32487U 08006A   24112.82715073 -.00000001  00000+0  00000+0 0  9991
2 32487   0.0122 223.0474 0002815 178.0570 106.2913  1.00271993 59432
AMC-14                  
1 32708U 08011A   24112.97378378  .00000079  00000+0  00000+0 0  9996
2 32708  23.0138  29.9762 0043912   0.1391 188.3972  1.00275111 60212
DIRECTV 11              
1 32729U 08013A   24112.58476840 -.00000119  00000+0  00000+0 0  9997
2 32729   0.0169 108.8638 0000817  27.9890 184.6315  1.00270814 59056
ICO G1                  
1 32763U 08016A   24112.88040855 -.00000162  00000+0  00000+0 0  9992
2 32763   4.8282  34.5546 0002301 353.0095  46.9544  1.00271929 58663
VINASAT-1               
1 32767U 08018A   24112.63448606 -.00000322  00000+0  00000+0 0  9995
2 32767   0.0065  91.1778 0002052 327.9844 151.3843  1.00269629 58707
STAR ONE C2             
1 32768U 08018B   24112.88597800 -.00000269  00000+0  00000+0 0  9994
2 32768   0.0220  45.8393 0002587 350.6554  67.8949  1.00269910 58772
AMOS-3                  
1 32794U 08022A   24112.89781307 -.00000027  00000+0  00000+0 0  9998
2 32794   0.0508  87.6972 0001724 270.9464 170.9045  1.00273136 74454
GALAXY 18 (G-18)        
1 32951U 08024A   24112.73129375  .00000033  00000+0  00000+0 0  9995
2 32951   0.0209 250.8093 0003140 143.8358 315.8982  1.00271201 37965
CHINASAT 9 (ZX 9)       
1 33051U 08028A   24112.91721911 -.00000240  00000+0  00000+0 0  9996
2 33051   0.0245 129.2079 0004730 279.2125 224.4563  1.00271471 58155
SKYNET 5C               
1 33055U 08030A   24112.89537644 -.00000130  00000+0  00000+0 0  9996
2 33055   1.7625  85.8479 0005209 316.6197 112.5208  1.00272414 58079
TURKSAT 3A              
1 33056U 08030B   24113.12198324  .00000155  00000+0  00000+0 0  9998
2 33056   0.0589  97.0603 0004676 315.4499 244.0646  1.00270378 58191
INTELSAT 25 (IS-25)     
1 33153U 08034A   24113.10736344 -.00000215  00000+0  00000+0 0  9996
2 33153   0.6735  89.6590 0003309 314.3290 173.8095  1.00270645 57754
BADR-6                  
1 33154U 08034B   24112.90416573  .00000153  00000+0  00000+0 0  9993
2 33154   0.8142  86.9979 0009890 332.9763 142.1965  1.00270594 57873
ECHOSTAR 11             
1 33207U 08035A   24112.57423451 -.00000049  00000+0  00000+0 0  9994
2 33207   0.0112 130.2956 0002863 256.0216 280.5382  1.00269301 43320
SUPERBIRD-C2            
1 33274U 08038A   24112.92748778 -.00000243  00000+0  00000+0 0  9998
2 33274   0.3246  91.2750 0001096 275.7675 321.2722  1.00272643 97847
AMC-21                  
1 33275U 08038B   24112.64849399  .00000044  00000+0  00000+0 0  9997
2 33275   0.9106  90.6680 0002898 303.3086 284.7778  1.00272059 57604
INMARSAT 4-F3           
1 33278U 08039A   24112.87936428 -.00000131  00000+0  00000+0 0  9994
2 33278   3.6713  26.9000 0002750  10.1112  31.9774  1.00270419 38660
NIMIQ 4                 
1 33373U 08044A   24112.88258413 -.00000212  00000+0  00000+0 0  9998
2 33373   0.0168 267.7176 0002185 112.0652  66.3776  1.00273164 57095
GALAXY 19 (G-19)        
1 33376U 08045A   24113.02277750 -.00000131  00000+0  00000+0 0  9994
2 33376   0.0257 269.6967 0002858 129.3302  82.7404  1.00272627 56953
ASTRA 1M                
1 33436U 08057A   24113.11745806  .00000129  00000+0  00000+0 0  9992
2 33436   0.0890  84.9532 0003217 348.1211 199.0737  1.00273917 56593
EUTELSAT HOTBIRD 13C    
1 33459U 08065A   24112.89642071 -.00000091  00000+0  00000+0 0  9999
2 33459   0.9186  87.5142 0004757 303.3665 129.7876  1.00272148 39463
FENGYUN 2E              
1 33463U 08066A   24112.31208713 -.00000124  00000+0  00000+0 0  9990
2 33463   7.4555  61.0072 0002293  15.6432 174.7612  0.99120268 56208
EXPRESS-AM44            
1 33595U 09007A   24113.11145350 -.00000079  00000+0  00000+0 0  9997
2 33595   1.4324  87.8216 0003953 302.7101 209.2609  1.00272602 55656
NSS-9                   
1 33749U 09008A   24112.79216765  .00000079  00000+0  00000+0 0  9990
2 33749   0.0197  78.4930 0002169 303.8240 296.2625  1.00270788 55638
EUTELSAT 33E            
1 33750U 09008B   24112.87997344 -.00000141  00000+0  00000+0 0  9991
2 33750   0.6386  88.9659 0004181 310.2840  32.6017  1.00272445 55554
TELSTAR 11N             
1 34111U 09009A   24112.74826315 -.00000243  00000+0  00000+0 0  9992
2 34111   0.0106 257.2864 0002605 122.0238  62.8201  1.00271515 38354
WGS F2 (USA 204)        
1 34713U 09017A   24112.90882763  .00000076  00000+0  00000+0 0  9999
2 34713   0.0197 233.9507 0000204 146.0663 215.1192  1.00270877 37731
SES-7 (PROTOSTAR 2)     
1 34941U 09027A   24112.99197150 -.00000337  00000+0  00000+0 0  9992
2 34941   0.0857  80.4333 0001802 249.2686 346.1971  1.00271370 54722
MEASAT-3A               
1 35362U 09032A   24112.92731373 -.00000089  00000+0  00000+0 0  9994
2 35362   0.0435 128.1651 0000883 333.8013 225.2905  1.01101412   148
GOES 14                 
1 35491U 09033A   24113.09204747 -.00000057  00000+0  00000+0 0  9992
2 35491   0.2077 110.8685 0003356 312.1553  72.1599  1.00271254 54279
FM-5                    
1 35493U 09034A   24112.89910333 -.00000192  00000+0  00000+0 0  9997
2 35493   0.0248 270.2890 0000853 310.9536 226.7462  1.00272215 38753
TERRESTAR-1             
1 35496U 09035A   24112.87684062 -.00000047  00000+0  00000+0 0  9995
2 35496   4.3240  47.1687 0002850 342.7649  25.1574  1.00272371 54258
ASIASAT 5               
1 35696U 09042A   24112.84725295 -.00000300  00000+0  00000+0 0  9998
2 35696   0.0180 247.7352 0001760 129.8812 238.2906  1.00273601 53823
JCSAT-12 (JCSAT-RA)     
1 35755U 09044A   24112.92513816 -.00000320  00000+0  00000+0 0  9991
2 35755   0.1131  90.8047 0001276 296.0372 288.7442  1.00270515 53729
OPTUS D3                
1 35756U 09044B   24112.97340944 -.00000139  00000+0  00000+0 0  9995
2 35756   0.0604  39.0835 0004396 345.0446 332.8310  1.00272188 53753
NIMIQ 5                 
1 35873U 09050A   24112.88441160 -.00000249  00000+0  00000+0 0  9996
2 35873   0.0548  82.0310 0002824 307.9354  66.1686  1.00272412 53466
AMAZONAS 2              
1 35942U 09054A   24112.18104892 -.00000277  00000+0  00000+0 0  9999
2 35942   0.0616 102.9295 0003824 326.0707 144.9368  1.00271380 53294
COMSATBW-1              
1 35943U 09054B   24112.91138859  .00000032  00000+0  00000+0 0  9999
2 35943   0.0408  74.5463 0002910 315.0393 211.9874  1.00270883 53417
NSS-12                  
1 36032U 09058A   24112.91017028  .00000079  00000+0  00000+0 0  9998
2 36032   0.0080  93.0856 0003470 314.1253 187.9013  1.00270360 53037
THOR 6                  
1 36033U 09058B   24112.82715073 -.00000002  00000+0  00000+0 0  9991
2 36033   0.0205 142.2120 0001870 237.6520 127.4487  1.00271334 53087
INTELSAT 14 (IS-14)     
1 36097U 09064A   24112.88998103 -.00000265  00000+0  00000+0 0  9992
2 36097   0.0073 182.8197 0002472 206.7080  96.3206  1.00272798 52729
EUTELSAT 36B            
1 36101U 09065A   24112.92688344  .00000163  00000+0  00000+0 0  9993
2 36101   0.0736  21.2604 0005898  16.2116 182.5735  1.00274553 52837
INTELSAT 15 (IS-15)     
1 36106U 09067A   24113.07757973 -.00000177  00000+0  00000+0 0  9998
2 36106   0.0014 189.8845 0002429 206.7876 287.0413  1.00272413 52719
WGS F3 (USA 211)        
1 36108U 09068A   24112.96194872 -.00000260  00000+0  00000+0 0  9994
2 36108   0.0143 156.2509 0000441 205.6738 152.0751  1.00271996 52627
DIRECTV 12              
1 36131U 09075A   24112.87823299 -.00000096  00000+0  00000+0 0  9997
2 36131   0.0388  78.9047 0000784 249.4021  95.5602  1.00272172 38674
BEIDOU-2 G1             
1 36287U 10001A   24112.92679160 -.00000271  00000+0  00000+0 0  9997
2 36287   2.4932  57.3292 0004949 309.6987 317.4880  1.00269887 52283
RADUGA-1M 2             
1 36358U 10002A   24112.91582675 -.00000174  00000+0  00000+0 0  9992
2 36358   1.5759  89.0893 0002019 287.9101 248.1483  1.00269241 42204
SDO                     
1 36395U 10005A   24112.47075925 -.00000031  00000+0  00000+0 0  9994
2 36395  33.0096  98.4688 0001515 231.8853 307.4805  1.00274165 52172
INTELSAT 16 (IS-16)     
1 36397U 10006A   24112.88371542 -.00000236  00000+0  00000+0 0  9993
2 36397   0.0219 106.5399 0002346 313.7509  32.0754  1.00269363 51768
